{"type": "FeatureCollection", "features": [{"type": "Feature", "properties": {"district_name": "Port Louis", "population": 120000}, "geometry": {"type": "Polygon", "coordinates": [[[57.498, -20.16], [57.51, -20.16], [57.51, -20.17], [57.498, -20.17], [57.498, -20.16]]]}}, {"type": "Feature", "properties": {"district_name": "Black River", "population": 80000}, "geometry": {"type": "Polygon", "coordinates": [[[57.37, -20.32], [57.39, -20.32], [57.39, -20.34], [57.37, -20.34], [57.37, -20.32]]]}}, {"type": "Feature", "properties": {"district_name": "Flacq", "population": 138000}, "geometry": {"type": "Polygon", "coordinates": [[[57.71, -20.19], [57.73, -20.19], [57.73, -20.21], [57.71, -20.21], [57.71, -20.19]]]}}]}